IRIDIUM 144             
1 43249U 18030A   25040.31601206  .00000447  00000+0  15271-3 0  9997
2 43249  86.4008 136.4724 0002208  95.7632 264.3816 14.34217153359492
IRIDIUM 149             
1 43250U 18030B   25040.53165795  .00000261  00000+0  86072-4 0  9993
2 43250  86.4006 136.3551 0002194  91.9870 268.1577 14.34216759359548
IRIDIUM 157             
1 43251U 18030C   25040.62045625  .00000231  00000+0  75487-4 0  9998
2 43251  86.4011 136.3604 0001872  97.2025 262.9384 14.34219205359533
IRIDIUM 140             
1 43252U 18030D   25040.36040935  .00000580  00000+0  20019-3 0  9996
2 43252  86.4010 136.4830 0002264  97.5666 262.5787 14.34220437359559
IRIDIUM 145             
1 43253U 18030E   25040.62679935 -.00000333  00000+0 -12604-3 0  9993
2 43253  86.4008 136.3445 0002345  88.0706 272.0759 14.34216001359522
IRIDIUM 146             
1 43254U 18030F   25040.53800392  .00000212  00000+0  68661-4 0  9996
2 43254  86.4007 136.3957 0002550  90.8076 269.3412 14.34218591359520
IRIDIUM 148             
1 43255U 18030G   25040.36675281  .00000375  00000+0  12674-3 0  9997
2 43255  86.4009 136.5027 0002154  92.0855 268.0587 14.34218983359537
IRIDIUM 142             
1 43256U 18030H   25040.61411425  .00000591  00000+0  20402-3 0  9992
2 43256  86.4008 136.3066 0002479  87.5574 272.5906 14.34218616359533
